start=new Date('2023-02-01T00:00:00.000Z').valueOf();
sats=[{"CENTER_NAME":"EARTH","LAUNCH_DATE":"2022-10-20","OBJECT_ID":"2022-136X","OBJECT_TYPE":"PAYLOAD","ECCENTRICITY":"0.00012350","INCLINATION":"53.2172","COUNTRY_CODE":"US","ARG_OF_PERICENTER":"96.2446","RA_OF_ASC_NODE":"29.1892","APOAPSIS":"540.628","DECAY_DATE":null,"SITE":"AFETR","TIME_SYSTEM":"UTC","MEAN_ANOMALY":"263.8687","NORAD_CAT_ID":"54072","REF_FRAME":"TEME","SEMIMAJOR_AXIS":"6917.908","TLE_LINE1":"1 54072U 22136X   23031.89121367  .00001480  00000-0  11110-3 0  9998","PERIAPSIS":"538.919","REV_AT_EPOCH":"1583","TLE_LINE2":"2 54072  53.2172  29.1892 0001235  96.2446 263.8687 15.08830878 15838","CLASSIFICATION_TYPE":"U","RCS_SIZE":"LARGE","ELEMENT_SET_NO":"999","FILE":"3766747","EPOCH":"2023-01-31T21:23:20.861088","MEAN_ELEMENT_THEORY":"SGP4","GP_ID":"224130145","MEAN_MOTION_DDOT":"0.0000000000000","MEAN_MOTION":"15.08830878","MEAN_MOTION_DOT":"0.00001480","EPHEMERIS_TYPE":"0","PERIOD":"95.438","OBJECT_NAME":"STARLINK-5144","BSTAR":"0.00011110000000"},{"INCLINATION":"53.2189","ECCENTRICITY":"0.00011380","RA_OF_ASC_NODE":"26.8827","ARG_OF_PERICENTER":"95.8323","COUNTRY_CODE":"US","OBJECT_ID":"2022-136Y","LAUNCH_DATE":"2022-10-20","CENTER_NAME":"EARTH","OBJECT_TYPE":"PAYLOAD","MEAN_ANOMALY":"264.2799","TIME_SYSTEM":"UTC","SEMIMAJOR_AXIS":"6917.878","NORAD_CAT_ID":"54073","REF_FRAME":"TEME","APOAPSIS":"540.530","SITE":"AFETR","DECAY_DATE":null,"EPOCH":"2023-01-31T09:53:56.793696","FILE":"3766475","GP_ID":"224097538","MEAN_ELEMENT_THEORY":"SGP4","TLE_LINE2":"2 54073  53.2189  26.8827 0001138  95.8323 264.2799 15.08840706 15829","REV_AT_EPOCH":"1582","PERIAPSIS":"538.956","TLE_LINE1":"1 54073U 22136Y   23031.41246289  .00001727  00000-0  12655-3 0  9997","ELEMENT_SET_NO":"999","RCS_SIZE":"LARGE","CLASSIFICATION_TYPE":"U","PERIOD":"95.438","EPHEMERIS_TYPE":"0","MEAN_MOTION_DOT":"0.00001727","BSTAR":"0.00012655000000","OBJECT_NAME":"STARLINK-5146","MEAN_MOTION":"15.08840706","MEAN_MOTION_DDOT":"0.0000000000000"},{"OBJECT_NAME":"STARLINK-5192","BSTAR":"0.00006534100000","MEAN_MOTION_DOT":"0.00000752","EPHEMERIS_TYPE":"0","PERIOD":"95.437","MEAN_MOTION_DDOT":"0.0000000000000","MEAN_MOTION":"15.08842892","MEAN_ELEMENT_THEORY":"SGP4","GP_ID":"224098279","FILE":"3766475","EPOCH":"2023-01-31T06:48:57.155904","CLASSIFICATION_TYPE":"U","RCS_SIZE":"LARGE","ELEMENT_SET_NO":"999","TLE_LINE1":"1 54074U 22136Z   23031.28399486  .00000752  00000-0  65341-4 0  9999","PERIAPSIS":"538.825","REV_AT_EPOCH":"1574","TLE_LINE2":"2 54074  53.2181  31.7847 0001318  94.5180 265.5963 15.08842892 15742","NORAD_CAT_ID":"54074","REF_FRAME":"TEME","SEMIMAJOR_AXIS":"6917.872","TIME_SYSTEM":"UTC","MEAN_ANOMALY":"265.5963","DECAY_DATE":null,"SITE":"AFETR","APOAPSIS":"540.648","COUNTRY_CODE":"US","ARG_OF_PERICENTER":"94.5180","RA_OF_ASC_NODE":"31.7847","ECCENTRICITY":"0.00013180","INCLINATION":"53.2181","OBJECT_TYPE":"PAYLOAD","CENTER_NAME":"EARTH","LAUNCH_DATE":"2022-10-20","OBJECT_ID":"2022-136Z"},{"RCS_SIZE":"MEDIUM","ELEMENT_SET_NO":"999","CLASSIFICATION_TYPE":"U","REV_AT_EPOCH":"1580","TLE_LINE2":"2 54075  53.2186  27.3175 0001264  91.7771 268.3366 15.08844495 15804","TLE_LINE1":"1 54075U 22136AA  23031.25417927  .00001416  00000-0  10702-3 0  9996","PERIAPSIS":"538.857","GP_ID":"224099007","MEAN_ELEMENT_THEORY":"SGP4","EPOCH":"2023-01-31T06:06:01.088928","FILE":"3766475","MEAN_MOTION_DDOT":"0.0000000000000","MEAN_MOTION":"15.08844495","OBJECT_NAME":"STARLINK-5212","BSTAR":"0.00010702000000","EPHEMERIS_TYPE":"0","PERIOD":"95.437","MEAN_MOTION_DOT":"0.00001416","OBJECT_TYPE":"PAYLOAD","LAUNCH_DATE":"2022-10-20","OBJECT_ID":"2022-136AA","CENTER_NAME":"EARTH","RA_OF_ASC_NODE":"27.3175","COUNTRY_CODE":"US","ARG_OF_PERICENTER":"91.7771","ECCENTRICITY":"0.00012640","INCLINATION":"53.2186","SITE":"AFETR","DECAY_DATE":null,"APOAPSIS":"540.606","SEMIMAJOR_AXIS":"6917.867","NORAD_CAT_ID":"54075","REF_FRAME":"TEME","MEAN_ANOMALY":"268.3366","TIME_SYSTEM":"UTC"},{"CLASSIFICATION_TYPE":"U","ELEMENT_SET_NO":"999","RCS_SIZE":"LARGE","PERIAPSIS":"538.478","TLE_LINE1":"1 54076U 22136AB  23031.94271139  .00002015  00000-0  14464-3 0  9991","TLE_LINE2":"2 54076  53.2169  28.7905 0001818  85.7077 274.4123 15.08843306 15842","REV_AT_EPOCH":"1584","MEAN_ELEMENT_THEORY":"SGP4","GP_ID":"224129646","FILE":"3766747","EPOCH":"2023-01-31T22:37:30.264096","MEAN_MOTION":"15.08843306","MEAN_MOTION_DDOT":"0.0000000000000","BSTAR":"0.00014464000000","OBJECT_NAME":"STARLINK-5201","MEAN_MOTION_DOT":"0.00002015","PERIOD":"95.437","EPHEMERIS_TYPE":"0","OBJECT_TYPE":"PAYLOAD","CENTER_NAME":"EARTH","OBJECT_ID":"2022-136AB","LAUNCH_DATE":"2022-10-20","ARG_OF_PERICENTER":"85.7077","COUNTRY_CODE":"US","RA_OF_ASC_NODE":"28.7905","INCLINATION":"53.2169","ECCENTRICITY":"0.00018180","DECAY_DATE":null,"SITE":"AFETR","APOAPSIS":"540.993","NORAD_CAT_ID":"54076","REF_FRAME":"TEME","SEMIMAJOR_AXIS":"6917.870","TIME_SYSTEM":"UTC","MEAN_ANOMALY":"274.4123"},{"OBJECT_NAME":"STARLINK-5171","BSTAR":"-0.00002533600000","MEAN_MOTION_DOT":"-0.00000691","EPHEMERIS_TYPE":"0","PERIOD":"95.438","MEAN_MOTION_DDOT":"0.0000000000000","MEAN_MOTION":"15.08840656","MEAN_ELEMENT_THEORY":"SGP4","GP_ID":"224128394","FILE":"3766747","EPOCH":"2023-01-31T22:57:27.806112","CLASSIFICATION_TYPE":"U","RCS_SIZE":"LARGE","ELEMENT_SET_NO":"999","TLE_LINE1":"1 54077U 22136AC  23031.95657183 -.00000691  00000-0 -25336-4 0  9991","PERIAPSIS":"538.919","REV_AT_EPOCH":"1612","TLE_LINE2":"2 54077  53.2173   8.9136 0001192  90.9726 269.1403 15.08840656 16127","REF_FRAME":"TEME","NORAD_CAT_ID":"54077","SEMIMAJOR_AXIS":"6917.878","TIME_SYSTEM":"UTC","MEAN_ANOMALY":"269.1403","DECAY_DATE":null,"SITE":"AFETR","APOAPSIS":"540.568","COUNTRY_CODE":"US","ARG_OF_PERICENTER":"90.9726","RA_OF_ASC_NODE":"8.9136","ECCENTRICITY":"0.00011920","INCLINATION":"53.2173","OBJECT_TYPE":"PAYLOAD","CENTER_NAME":"EARTH","LAUNCH_DATE":"2022-10-20","OBJECT_ID":"2022-136AC"},{"MEAN_MOTION_DDOT":"0.0000000000000","MEAN_MOTION":"15.08845409","OBJECT_NAME":"STARLINK-5138","BSTAR":"0.00002973400000","MEAN_MOTION_DOT":"0.00000185","EPHEMERIS_TYPE":"0","PERIOD":"95.437","CLASSIFICATION_TYPE":"U","RCS_SIZE":"LARGE","ELEMENT_SET_NO":"999","TLE_LINE1":"1 54078U 22136AD  23031.32733189  .00000185  00000-0  29734-4 0  9996","PERIAPSIS":"538.799","REV_AT_EPOCH":"1602","TLE_LINE2":"2 54078  53.2182  12.0891 0001344  95.5559 264.5586 15.08845409 16027","MEAN_ELEMENT_THEORY":"SGP4","GP_ID":"224097784","FILE":"3766475","EPOCH":"2023-01-31T07:51:21.475296","DECAY_DATE":null,"SITE":"AFETR","APOAPSIS":"540.659","NORAD_CAT_ID":"54078","REF_FRAME":"TEME","SEMIMAJOR_AXIS":"6917.864","TIME_SYSTEM":"UTC","MEAN_ANOMALY":"264.5586","OBJECT_TYPE":"PAYLOAD","CENTER_NAME":"EARTH","LAUNCH_DATE":"2022-10-20","OBJECT_ID":"2022-136AD","COUNTRY_CODE":"US","ARG_OF_PERICENTER":"95.5559","RA_OF_ASC_NODE":"12.0891","ECCENTRICITY":"0.00013440","INCLINATION":"53.2182"},{"MEAN_MOTION_DOT":"0.00001149","EPHEMERIS_TYPE":"0","PERIOD":"95.437","OBJECT_NAME":"STARLINK-5175","BSTAR":"0.00009022500000","MEAN_MOTION_DDOT":"0.0000000000000","MEAN_MOTION":"15.08843665","FILE":"3766747","EPOCH":"2023-01-31T22:28:20.663328","MEAN_ELEMENT_THEORY":"SGP4","GP_ID":"224129396","TLE_LINE1":"1 54079U 22136AE  23031.93635027  .00001149  00000-0  90225-4 0  9990","PERIAPSIS":"538.894","REV_AT_EPOCH":"1597","TLE_LINE2":"2 54079  53.2178  19.4646 0001215 103.5591 256.5536 15.08843665 15976","CLASSIFICATION_TYPE":"U","RCS_SIZE":"LARGE","ELEMENT_SET_NO":"999","TIME_SYSTEM":"UTC","MEAN_ANOMALY":"256.5536","NORAD_CAT_ID":"54079","REF_FRAME":"TEME","SEMIMAJOR_AXIS":"6917.869","APOAPSIS":"540.575","DECAY_DATE":null,"SITE":"AFETR","ECCENTRICITY":"0.00012150","INCLINATION":"53.2178","COUNTRY_CODE":"US","ARG_OF_PERICENTER":"103.5591","RA_OF_ASC_NODE":"19.4646","CENTER_NAME":"EARTH","LAUNCH_DATE":"2022-10-20","OBJECT_ID":"2022-136AE","OBJECT_TYPE":"PAYLOAD"},{"CLASSIFICATION_TYPE":"U","RCS_SIZE":"LARGE","ELEMENT_SET_NO":"999","TLE_LINE1":"1 54080U 22136AF  23031.36463740  .00001272  00000-0  97994-4 0  9997","PERIAPSIS":"538.892","REV_AT_EPOCH":"1581","TLE_LINE2":"2 54080  53.2183  27.2930 0001236 109.3065 250.8061 15.08839392 15815","MEAN_ELEMENT_THEORY":"SGP4","GP_ID":"224099244","FILE":"3766475","EPOCH":"2023-01-31T08:45:04.671360","MEAN_MOTION_DDOT":"0.0000000000000","MEAN_MOTION":"15.08839392","OBJECT_NAME":"STARLINK-5160","BSTAR":"0.00009799400000","MEAN_MOTION_DOT":"0.00001272","EPHEMERIS_TYPE":"0","PERIOD":"95.438","OBJECT_TYPE":"PAYLOAD","CENTER_NAME":"EARTH","LAUNCH_DATE":"2022-10-20","OBJECT_ID":"2022-136AF","COUNTRY_CODE":"US","ARG_OF_PERICENTER":"109.3065","RA_OF_ASC_NODE":"27.2930","ECCENTRICITY":"0.00012360","INCLINATION":"53.2183","DECAY_DATE":null,"SITE":"AFETR","APOAPSIS":"540.602","NORAD_CAT_ID":"54080","REF_FRAME":"TEME","SEMIMAJOR_AXIS":"6917.882","TIME_SYSTEM":"UTC","MEAN_ANOMALY":"250.8061"},{"DECAY_DATE":null,"SITE":"AFETR","APOAPSIS":"540.505","NORAD_CAT_ID":"54081","REF_FRAME":"TEME","SEMIMAJOR_AXIS":"6917.867","TIME_SYSTEM":"UTC","MEAN_ANOMALY":"268.2909","OBJECT_TYPE":"PAYLOAD","CENTER_NAME":"EARTH","OBJECT_ID":"2022-136AG","LAUNCH_DATE":"2022-10-20","ARG_OF_PERICENTER":"91.8211","COUNTRY_CODE":"US","RA_OF_ASC_NODE":"21.7965","INCLINATION":"53.2189","ECCENTRICITY":"0.00011180","MEAN_MOTION":"15.08844390","MEAN_MOTION_DDOT":"0.0000000000000","BSTAR":"0.00008213100000","OBJECT_NAME":"STARLINK-5165","MEAN_MOTION_DOT":"0.00001020","PERIOD":"95.437","EPHEMERIS_TYPE":"0","CLASSIFICATION_TYPE":"U","ELEMENT_SET_NO":"999","RCS_SIZE":"LARGE","PERIAPSIS":"538.959","TLE_LINE1":"1 54081U 22136AG  23031.39905849  .00001020  00000-0  82131-4 0  9990","TLE_LINE2":"2 54081  53.2189  21.7965 0001118  91.8211 268.2909 15.08844390 15892","REV_AT_EPOCH":"1589","MEAN_ELEMENT_THEORY":"SGP4","GP_ID":"224097539","FILE":"3766475","EPOCH":"2023-01-31T09:34:38.653536"}];
